[{"OBJECT_NAME":"GJZ 01","OBJECT_ID":"2024-238A","EPOCH":"2026-03-09T22:58:31.569312","MEAN_MOTION":13.75204151,"ECCENTRICITY":0.00225262,"INCLINATION":59.9119,"RA_OF_ASC_NODE":227.0135,"ARG_OF_PERICENTER":155.3106,"MEAN_ANOMALY":204.8985,"EPHEMERIS_TYPE":0,"CLASSIFICATION_TYPE":"U","NORAD_CAT_ID":62290,"ELEMENT_SET_NO":999,"REV_AT_EPOCH":6195,"BSTAR":0.00017039412,"MEAN_MOTION_DOT":4.5e-7,"MEAN_MOTION_DDOT":0},{"OBJECT_NAME":"NIMBUS 2 DEB","OBJECT_ID":"1966-040AL","EPOCH":"2026-03-08T00:45:00.227232","MEAN_MOTION":13.68714518,"ECCENTRICITY":0.00423718,"INCLINATION":100.2877,"RA_OF_ASC_NODE":103.3531,"ARG_OF_PERICENTER":118.1668,"MEAN_ANOMALY":272.9307,"EPHEMERIS_TYPE":0,"CLASSIFICATION_TYPE":"U","NORAD_CAT_ID":27406,"ELEMENT_SET_NO":999,"REV_AT_EPOCH":31151,"BSTAR":0.0038690963,"MEAN_MOTION_DOT":3.3e-5,"MEAN_MOTION_DDOT":0}]
